NORAD_CAT_ID,OBJECT_NAME,OBJECT_TYPE,EPOCH,MEAN_MOTION,ECCENTRICITY,INCLINATION,RA_OF_ASC_NODE,ARG_OF_PERICENTER,MEAN_ANOMALY,BSTAR,MEAN_MOTION_DOT,MEAN_MOTION_DDOT,TLE_LINE0,TLE_LINE1,TLE_LINE2,SEMIMAJOR_AXIS,PERIOD,APOGEE,PERIGEE,DECAYED
53409.0,STARLINK-4490,PAYLOAD,2023-07-24 02:05:14,15.0884247,0.0001277,53.2153,92.1388,90.5762,269.5377,0.00011221,1.499e-05,0.0,0 STARLINK-4490,1 53409U 22097X   23205.08697565  .00001499  00000-0  11221-3 0  9992,2 53409  53.2153  92.1388 0001277  90.5762 269.5377 15.08842470 53926,6917.873,95.437,540.621,538.854,0.0
53409.0,STARLINK-4490,PAYLOAD,2023-07-25 01:56:01,15.08850688,0.000156,53.2158,87.679,92.3559,267.7612,0.00027425,4.081e-05,0.0,0 STARLINK-4490,1 53409U 22097X   23206.08057345  .00004081  00000-0  27425-3 0  9992,2 53409  53.2158  87.6790 0001560  92.3559 267.7612 15.08850688 54075,6917.848,95.437,540.792,538.634,0.0
53409.0,STARLINK-4490,PAYLOAD,2023-07-26 01:46:48,15.08846413,0.0001579,53.2154,83.2179,85.2904,274.8268,0.00023405,3.44e-05,0.0,0 STARLINK-4490,1 53409U 22097X   23207.07417599  .00003440  00000-0  23405-3 0  9995,2 53409  53.2154  83.2179 0001579  85.2904 274.8268 15.08846413 54223,6917.861,95.437,540.818,538.633,0.0
53409.0,STARLINK-4490,PAYLOAD,2023-07-27 01:37:35,15.0885461,0.0001338,53.2162,78.7553,90.3561,269.7585,0.00026575,3.946e-05,0.0,0 STARLINK-4490,1 53409U 22097X   23208.06776857  .00003946  00000-0  26575-3 0  9992,2 53409  53.2162  78.7553 0001338  90.3561 269.7585 15.08854610 53880,6917.836,95.437,540.626,538.775,0.0
53409.0,STARLINK-4490,PAYLOAD,2023-07-27 07:59:08,15.08836629,0.0002467,53.2179,77.5693,80.4479,279.6792,-2.0076e-05,-6.08e-06,0.0,0 STARLINK-4490,1 53409U 22097X   23208.33274170 -.00000608  00000-0 -20076-4 0  9998,2 53409  53.2179  77.5693 0002467  80.4479 279.6792 15.08836629 53927,6917.891,95.438,541.462,538.049,0.0
53409.0,STARLINK-4490,PAYLOAD,2023-07-27 22:17:37,15.08826874,0.0001744,53.218,74.8914,85.9434,274.1758,-0.00020364,-3.526e-05,0.0,0 STARLINK-4490,1 53409U 22097X   23208.92890188 -.00003526  00000-0 -20364-3 0  9997,2 53409  53.2180  74.8914 0001744  85.9434 274.1758 15.08826874 54501,6917.921,95.438,540.992,538.579,0.0
53409.0,STARLINK-4490,PAYLOAD,2023-07-28 01:28:23,15.08828346,0.000124,53.2167,74.2957,80.2578,279.8554,-0.00011216,-2.072e-05,0.0,0 STARLINK-4490,1 53409U 22097X   23209.06138356 -.00002072  00000-0 -11216-3 0  9996,2 53409  53.2167  74.2957 0001240  80.2578 279.8554 15.08828346 54529,6917.916,95.438,540.639,538.923,0.0
53409.0,STARLINK-4490,PAYLOAD,2023-07-28 17:22:14,15.08844402,0.0001057,53.216,71.3229,83.5046,276.6066,9.9649e-06,-1.29e-06,0.0,0 STARLINK-4490,1 53409U 22097X   23209.72377791 -.00000129  00000-0  99649-5 0  9995,2 53409  53.2160  71.3229 0001057  83.5046 276.6066 15.08844402 54135,6917.867,95.437,540.463,539.001,0.0
53409.0,STARLINK-4490,PAYLOAD,2023-07-29 01:19:10,15.08854353,0.0001039,53.2157,69.8363,76.6495,283.4613,0.00087596,0.00013686,0.0,0 STARLINK-4490,1 53409U 22097X   23210.05497987  .00013686  00000-0  87596-3 0  9990,2 53409  53.2157  69.8363 0001039  76.6495 283.4613 15.08854353 54188,6917.837,95.437,540.42,538.983,0.0
53409.0,STARLINK-4490,PAYLOAD,2023-07-29 18:48:24,15.08853085,0.0001176,53.2152,66.5654,77.2335,282.8789,0.00062845,9.732e-05,0.0,0 STARLINK-4490,1 53409U 22097X   23210.78362077  .00009732  00000-0  62845-3 0  9998,2 53409  53.2152  66.5654 0001176  77.2335 282.8789 15.08853085 54292,6917.84,95.437,540.519,538.892,0.0
53409.0,STARLINK-4490,PAYLOAD,2023-07-30 18:39:11,15.08846984,0.0001286,53.2146,62.1041,66.563,293.5497,0.00092644,0.0001449,0.0,0 STARLINK-4490,1 53409U 22097X   23211.77722175  .00014490  00000-0  92644-3 0  9994,2 53409  53.2146  62.1041 0001286  66.5630 293.5497 15.08846984 54440,6917.859,95.437,540.614,538.834,0.0
53409.0,STARLINK-4490,PAYLOAD,2023-07-31 18:29:59,15.08834777,0.0001436,53.2155,57.6355,88.4271,271.6886,0.0001771,2.531e-05,0.0,0 STARLINK-4490,1 53409U 22097X   23212.77082401  .00002531  00000-0  17710-3 0  9990,2 53409  53.2155  57.6355 0001436  88.4271 271.6886 15.08834777 54590,6917.896,95.438,540.755,538.768,0.0
53409.0,STARLINK-4490,PAYLOAD,2023-08-01 23:06:55,15.08843684,0.0001275,53.2164,52.2875,91.9179,268.1959,0.00019943,2.888e-05,0.0,0 STARLINK-4490,1 53409U 22097X   23213.96314451  .00002888  00000-0  19943-3 0  9990,2 53409  53.2164  52.2875 0001275  91.9179 268.1959 15.08843684 54774,6917.869,95.437,540.616,538.852,0.0
53409.0,STARLINK-4490,PAYLOAD,2023-08-03 18:02:20,15.08845628,0.0001089,53.216,44.2605,85.7657,274.346,0.00011272,1.507e-05,0.0,0 STARLINK-4490,1 53409U 22097X   23215.75162077  .00001507  00000-0  11272-3 0  9998,2 53409  53.2160  44.2605 0001089  85.7657 274.3460 15.08845628 55044,6917.863,95.437,540.482,538.975,0.0
53409.0,STARLINK-4490,PAYLOAD,2023-08-04 17:53:07,15.08835177,0.0001187,53.218,39.8034,95.3089,264.8038,-8.1293e-05,-1.581e-05,0.0,0 STARLINK-4490,1 53409U 22097X   23216.74522382 -.00001581  00000-0 -81293-4 0  9992,2 53409  53.2180  39.8034 0001187  95.3089 264.8038 15.08835177 55196,6917.895,95.438,540.581,538.939,0.0
53409.0,STARLINK-4490,PAYLOAD,2023-08-04 22:39:16,15.08843596,0.0001086,53.217,38.9081,93.1502,266.9614,1.0479e-05,-1.21e-06,0.0,0 STARLINK-4490,1 53409U 22097X   23216.94394058 -.00000121  00000-0  10479-4 0  9997,2 53409  53.2170  38.9081 0001086  93.1502 266.9614 15.08843596 55222,6917.869,95.437,540.486,538.983,0.0
53409.0,STARLINK-4490,PAYLOAD,2023-08-06 04:51:36,15.08843277,0.0001426,53.2173,33.2583,72.5538,287.561,8.0265e-05,9.9e-06,0.0,0 STARLINK-4490,1 53409U 22097X   23218.20250250  .00000990  00000-0  80265-4 0  9996,2 53409  53.2173  33.2583 0001426  72.5538 287.5610 15.08843277 55410,6917.87,95.437,540.722,538.749,0.0
53409.0,STARLINK-4490,PAYLOAD,2023-08-06 19:10:05,15.08820787,0.0001103,53.2173,30.5811,76.33,283.7815,-0.00015438,-2.743e-05,0.0,0 STARLINK-4490,1 53409U 22097X   23218.79867849 -.00002743  00000-0 -15438-3 0  9997,2 53409  53.2173  30.5811 0001103  76.3300 283.7815 15.08820787 55501,6917.939,95.439,540.567,539.041,0.0
53409.0,STARLINK-4490,PAYLOAD,2023-08-07 04:42:24,15.08829146,0.0001033,53.2175,28.7983,79.423,280.6878,6.6016e-06,-1.83e-06,0.0,0 STARLINK-4490,1 53409U 22097X   23219.19611862 -.00000183  00000-0  66016-5 0  9999,2 53409  53.2175  28.7983 0001033  79.4230 280.6878 15.08829146 55569,6917.914,95.438,540.493,539.064,0.0
53409.0,STARLINK-4490,PAYLOAD,2023-08-07 19:00:52,15.08844087,9.97e-05,53.2168,26.1222,74.2748,285.8354,0.00064482,9.99e-05,0.0,0 STARLINK-4490,1 53409U 22097X   23219.79227957  .00009990  00000-0  64482-3 0  9990,2 53409  53.2168  26.1222 0000997  74.2748 285.8354 15.08844087 55651,6917.868,95.437,540.423,539.043,0.0
53409.0,STARLINK-4490,PAYLOAD,2023-08-08 20:27:02,15.08873614,0.0001122,53.2167,21.3648,62.199,297.9116,0.00099461,0.00015591,0.0,0 STARLINK-4490,1 53409U 22097X   23220.85210966  .00015591  00000-0  99461-3 0  9990,2 53409  53.2167  21.3648 0001122  62.1990 297.9116 15.08873614 55811,6917.778,95.435,540.419,538.866,0.0
53409.0,STARLINK-4490,PAYLOAD,2023-08-09 04:23:58,15.08853137,0.0001885,53.2164,19.8785,71.541,288.5787,6.5583e-05,7.56e-06,0.0,0 STARLINK-4490,1 53409U 22097X   23221.18331050  .00000756  00000-0  65583-4 0  9991,2 53409  53.2164  19.8785 0001885  71.5410 288.5787 15.08853137 55862,6917.84,95.437,541.009,538.401,0.0
53409.0,STARLINK-4490,PAYLOAD,2023-08-09 17:07:03,15.08848542,0.0001204,53.2169,17.4998,77.9817,282.1311,6.3707e-05,7.26e-06,0.0,0 STARLINK-4490,1 53409U 22097X   23221.71322976  .00000726  00000-0  63707-4 0  9990,2 53409  53.2169  17.4998 0001204  77.9817 282.1311 15.08848542 55949,6917.854,95.437,540.552,538.886,0.0
53409.0,STARLINK-4490,PAYLOAD,2023-08-09 20:17:49,15.08841595,0.0001114,53.2177,16.9043,82.8688,277.2431,-0.00010262,-1.921e-05,0.0,0 STARLINK-4490,1 53409U 22097X   23221.84571088 -.00001921  00000-0 -10262-3 0  9991,2 53409  53.2177  16.9043 0001114  82.8688 277.2431 15.08841595 55965,6917.876,95.437,540.511,538.97,0.0
53409.0,STARLINK-4490,PAYLOAD,2023-08-10 16:57:51,15.08822725,0.000115,53.2173,13.0386,82.7432,277.369,-7.5856e-05,-1.494e-05,0.0,0 STARLINK-4490,1 53409U 22097X   23222.70684857 -.00001494  00000-0 -75856-4 0  9992,2 53409  53.2173  13.0386 0001150  82.7432 277.3690 15.08822725 56092,6917.933,95.439,540.594,539.003,0.0
53409.0,STARLINK-4490,PAYLOAD,2023-08-11 02:30:10,15.08840524,0.0001068,53.2174,11.2536,82.8938,277.2176,0.00085165,0.00013292,0.0,0 STARLINK-4490,1 53409U 22097X   23223.10429073  .00013292  00000-0  85165-3 0  9994,2 53409  53.2174  11.2536 0001068  82.8938 277.2176 15.08840524 56152,6917.879,95.438,540.483,539.005,0.0
53409.0,STARLINK-4490,PAYLOAD,2023-08-11 16:48:38,15.08872791,0.0001097,53.2171,8.5783,77.7511,282.3604,0.0014443,0.00022793,0.0,0 STARLINK-4490,1 53409U 22097X   23223.70044457  .00022793  00000-0  14443-2 0  9995,2 53409  53.2171   8.5783 0001097  77.7511 282.3604 15.08872791 56248,6917.78,95.435,540.404,538.886,0.0
53409.0,STARLINK-4490,PAYLOAD,2023-08-12 16:39:24,15.08867136,9.82e-05,53.2166,4.1177,85.038,275.0724,0.0015222,0.00024039,0.0,0 STARLINK-4490,1 53409U 22097X   23224.69403363  .00024039  00000-0  15222-2 0  9990,2 53409  53.2166   4.1177 0000982  85.0380 275.0724 15.08867136 56394,6917.797,95.436,540.342,538.983,0.0
53409.0,STARLINK-4490,PAYLOAD,2023-08-13 02:11:43,15.08831695,0.0002886,53.2165,2.3292,78.877,281.2547,-0.00020606,-3.566e-05,0.0,0 STARLINK-4490,1 53409U 22097X   23225.09147629 -.00003566  00000-0 -20606-3 0  9992,2 53409  53.2165   2.3292 0002886  78.8770 281.2547 15.08831695 56459,6917.906,95.438,541.767,537.774,0.0
53409.0,STARLINK-4490,PAYLOAD,2023-08-13 16:30:11,15.08842277,0.0001268,53.2164,359.6564,81.4049,278.7087,0.00097467,0.00015259,0.0,0 STARLINK-4490,1 53409U 22097X   23225.68763476  .00015259  00000-0  97467-3 0  9990,2 53409  53.2164 359.6564 0001268  81.4049 278.7087 15.08842277 56548,6917.873,95.437,540.616,538.861,0.0
